NORAD_CAT_ID,OBJECT_NAME,OBJECT_TYPE,EPOCH,MEAN_MOTION,ECCENTRICITY,INCLINATION,RA_OF_ASC_NODE,ARG_OF_PERICENTER,MEAN_ANOMALY,BSTAR,MEAN_MOTION_DOT,MEAN_MOTION_DDOT,TLE_LINE0,TLE_LINE1,TLE_LINE2,SEMIMAJOR_AXIS,PERIOD,APOGEE,PERIGEE,DECAYED
52382.0,STARLINK-3799,PAYLOAD,2024-03-22 11:35:16,15.08834918,0.0001643,53.2175,168.7952,108.7584,251.3587,0.00024003,3.534e-05,0.0,0 STARLINK-3799,1 52382U 22045BD  24082.48283015  .00003534  00000-0  24003-3 0  9997,2 52382  53.2175 168.7952 0001643 108.7584 251.3587 15.08834918107657,6917.896,95.438,540.898,538.624,0.0
52382.0,STARLINK-3799,PAYLOAD,2024-03-22 13:10:39,15.08836159,0.0001567,53.2177,168.4977,89.2468,270.8704,0.00024662,3.639e-05,0.0,0 STARLINK-3799,1 52382U 22045BD  24082.54907046  .00003639  00000-0  24662-3 0  9998,2 52382  53.2177 168.4977 0001567  89.2468 270.8704 15.08836159107669,6917.892,95.438,540.841,538.673,0.0
52382.0,STARLINK-3799,PAYLOAD,2024-03-22 14:46:02,15.08839615,0.000173,53.2185,168.2009,99.927,260.1917,0.00027103,4.028e-05,0.0,0 STARLINK-3799,1 52382U 22045BD  24082.61530755  .00004028  00000-0  27103-3 0  9991,2 52382  53.2185 168.2009 0001730  99.9270 260.1917 15.08839615107672,6917.882,95.438,540.943,538.55,0.0
52382.0,STARLINK-3799,PAYLOAD,2024-03-23 13:01:27,15.08840256,0.0001207,53.2165,164.0382,109.5838,250.5285,-0.00012548,-2.284e-05,0.0,0 STARLINK-3799,1 52382U 22045BD  24083.54267992 -.00002284  00000-0 -12548-3 0  9995,2 52382  53.2165 164.0382 0001207 109.5838 250.5285 15.08840256107815,6917.88,95.438,540.58,538.91,0.0
52382.0,STARLINK-3799,PAYLOAD,2024-03-24 11:16:51,15.08844288,0.0001194,53.2173,159.8749,103.3036,256.809,-3.3199e-05,-8.16e-06,0.0,0 STARLINK-3799,1 52382U 22045BD  24084.47003597 -.00000816  00000-0 -33199-4 0  9992,2 52382  53.2173 159.8749 0001194 103.3036 256.8090 15.08844288107957,6917.867,95.437,540.558,538.906,0.0
52382.0,STARLINK-3799,PAYLOAD,2024-03-24 22:24:31,15.08866669,0.0001734,53.2194,157.7915,102.3565,257.7621,0.00019648,2.843e-05,0.0,0 STARLINK-3799,1 52382U 22045BD  24084.93369501  .00002843  00000-0  19648-3 0  9995,2 52382  53.2194 157.7915 0001734 102.3565 257.7621 15.08866669108024,6917.799,95.436,540.863,538.464,0.0
52382.0,STARLINK-3799,PAYLOAD,2024-03-25 11:07:38,15.08827846,0.0001578,53.2181,155.4118,100.3249,259.7921,0.00010517,1.386e-05,0.0,0 STARLINK-3799,1 52382U 22045BD  24085.46364215  .00001386  00000-0  10517-3 0  9998,2 52382  53.2181 155.4118 0001578 100.3249 259.7921 15.08827846108101,6917.918,95.438,540.874,538.691,0.0
52382.0,STARLINK-3799,PAYLOAD,2024-03-26 10:58:27,15.08825131,0.0001294,53.2183,150.9548,89.1218,270.9923,-0.00023393,-4.007e-05,0.0,0 STARLINK-3799,1 52382U 22045BD  24086.45726032 -.00004007  00000-0 -23393-3 0  9998,2 52382  53.2183 150.9548 0001294  89.1218 270.9923 15.08825131108253,6917.926,95.438,540.686,538.896,0.0
52382.0,STARLINK-3799,PAYLOAD,2024-03-27 10:49:12,15.08841259,0.0001405,53.2169,146.492,93.6734,266.4418,0.00023205,3.407e-05,0.0,0 STARLINK-3799,1 52382U 22045BD  24087.45084409  .00003407  00000-0  23205-3 0  9997,2 52382  53.2169 146.4920 0001405  93.6734 266.4418 15.08841259108403,6917.877,95.437,540.714,538.77,0.0
52382.0,STARLINK-3799,PAYLOAD,2024-03-27 20:21:30,15.08854961,0.0001373,53.2177,144.7105,90.7364,269.3785,0.00020476,2.974e-05,0.0,0 STARLINK-3799,1 52382U 22045BD  24087.84827400  .00002974  00000-0  20476-3 0  9991,2 52382  53.2177 144.7105 0001373  90.7364 269.3785 15.08854961108468,6917.835,95.437,540.649,538.75,0.0
52382.0,STARLINK-3799,PAYLOAD,2024-03-28 04:18:27,15.08835,0.0002196,53.2168,143.2224,73.3402,286.7831,0.00031058,4.658e-05,0.0,0 STARLINK-3799,1 52382U 22045BD  24088.17948607  .00004658  00000-0  31058-3 0  9990,2 52382  53.2168 143.2224 0002196  73.3402 286.7831 15.08835000108512,6917.896,95.438,541.28,538.242,0.0
52382.0,STARLINK-3799,PAYLOAD,2024-03-28 10:40:00,15.08827891,0.0001374,53.2181,142.0371,90.2872,269.8278,0.00024735,3.65e-05,0.0,0 STARLINK-3799,1 52382U 22045BD  24088.44445302  .00003650  00000-0  24735-3 0  9999,2 52382  53.2181 142.0371 0001374  90.2872 269.8278 15.08827891108553,6917.917,95.438,540.733,538.832,0.0
52382.0,STARLINK-3799,PAYLOAD,2024-03-28 20:12:18,15.08843939,0.0001382,53.2172,140.2493,82.5177,277.5972,0.00029884,4.472e-05,0.0,0 STARLINK-3799,1 52382U 22045BD  24088.84188349  .00004472  00000-0  29884-3 0  9991,2 52382  53.2172 140.2493 0001382  82.5177 277.5972 15.08843939108614,6917.868,95.437,540.689,538.777,0.0
52382.0,STARLINK-3799,PAYLOAD,2024-03-29 04:09:15,15.08840255,0.0001376,53.2179,138.7619,81.3415,278.7733,-0.00010813,-2.008e-05,0.0,0 STARLINK-3799,1 52382U 22045BD  24089.17309736 -.00002008  00000-0 -10813-3 0  9990,2 52382  53.2179 138.7619 0001376  81.3415 278.7733 15.08840255108669,6917.88,95.438,540.697,538.793,0.0
52382.0,STARLINK-3799,PAYLOAD,2024-03-29 12:06:10,15.08847857,0.0001552,53.2182,137.2791,96.3368,263.7801,-1.4381e-05,-5.17e-06,0.0,0 STARLINK-3799,1 52382U 22045BD  24089.50428923 -.00000517  00000-0 -14381-4 0  9995,2 52382  53.2182 137.2791 0001552  96.3368 263.7801 15.08847857108718,6917.856,95.437,540.795,538.648,0.0
52382.0,STARLINK-3799,PAYLOAD,2024-03-29 13:41:33,15.08844363,0.0001455,53.2174,136.9804,91.3621,268.7537,8.6392e-05,1.087e-05,0.0,0 STARLINK-3799,1 52382U 22045BD  24089.57052901  .00001087  00000-0  86392-4 0  9993,2 52382  53.2174 136.9804 0001455  91.3621 268.7537 15.08844363108720,6917.867,95.437,540.739,538.726,0.0
52382.0,STARLINK-3799,PAYLOAD,2024-03-29 20:03:05,15.08858452,0.0001457,53.2175,135.7908,85.7456,274.3702,3.3699e-05,2.49e-06,0.0,0 STARLINK-3799,1 52382U 22045BD  24089.83547887  .00000249  00000-0  33699-4 0  9995,2 52382  53.2175 135.7908 0001457  85.7456 274.3702 15.08858452108763,6917.824,95.436,540.697,538.681,0.0
52382.0,STARLINK-3799,PAYLOAD,2024-03-30 02:24:38,15.08847302,0.0002105,53.2181,134.6022,87.8803,272.2431,0.000179,2.562e-05,0.0,0 STARLINK-3799,1 52382U 22045BD  24090.10044413  .00002562  00000-0  17900-3 0  9990,2 52382  53.2181 134.6022 0002105  87.8803 272.2431 15.08847302108808,6917.858,95.437,541.179,538.267,0.0
52382.0,STARLINK-3799,PAYLOAD,2024-03-30 10:21:34,15.0883998,0.0001626,53.2175,133.1155,88.264,271.8538,4.0011e-05,3.49e-06,0.0,0 STARLINK-3799,1 52382U 22045BD  24090.43165007  .00000349  00000-0  40011-4 0  9990,2 52382  53.2175 133.1155 0001626  88.2640 271.8538 15.08839980108854,6917.88,95.438,540.87,538.621,0.0
52382.0,STARLINK-3799,PAYLOAD,2024-03-30 19:53:52,15.08852048,0.0001502,53.2166,131.3286,82.378,277.7383,3.8394e-05,3.23e-06,0.0,0 STARLINK-3799,1 52382U 22045BD  24090.82908035  .00000323  00000-0  38394-4 0  9992,2 52382  53.2166 131.3286 0001502  82.3780 277.7383 15.08852048108912,6917.844,95.437,540.748,538.67,0.0
52382.0,STARLINK-3799,PAYLOAD,2024-03-31 11:47:44,15.08838909,0.0001429,53.2166,128.3555,84.67,275.4455,2.7534e-05,1.5e-06,0.0,0 STARLINK-3799,1 52382U 22045BD  24091.49148919  .00000150  00000-0  27534-4 0  9995,2 52382  53.2166 128.3555 0001429  84.6700 275.4455 15.08838909109019,6917.884,95.438,540.737,538.76,0.0
52382.0,STARLINK-3799,PAYLOAD,2024-03-31 19:44:39,15.0884479,0.0001402,53.2163,126.869,85.5343,274.5809,3.3228e-05,2.41e-06,0.0,0 STARLINK-3799,1 52382U 22045BD  24091.82268500  .00000241  00000-0  33228-4 0  9999,2 52382  53.2163 126.8690 0001402  85.5343 274.5809 15.08844790109066,6917.866,95.437,540.701,538.761,0.0
52382.0,STARLINK-3799,PAYLOAD,2024-04-01 11:38:31,15.0884072,0.000147,53.217,123.8935,95.8978,264.2182,3.4626e-05,2.63e-06,0.0,0 STARLINK-3799,1 52382U 22045BD  24092.48508886  .00000263  00000-0  34626-4 0  9993,2 52382  53.2170 123.8935 0001470  95.8978 264.2182 15.08840720109166,6917.878,95.438,540.76,538.726,0.0
52382.0,STARLINK-3799,PAYLOAD,2024-04-01 19:35:26,15.08845958,0.0001584,53.2179,122.407,110.962,249.1542,3.2318e-05,2.26e-06,0.0,0 STARLINK-3799,1 52382U 22045BD  24092.81628438  .00000226  00000-0  32318-4 0  9991,2 52382  53.2179 122.4070 0001584 110.9620 249.1542 15.08845958109215,6917.862,95.437,540.823,538.631,0.0
52382.0,STARLINK-3799,PAYLOAD,2024-04-02 08:18:32,15.08840546,0.0001281,53.2173,120.0285,94.8491,265.2647,0.00022816,3.345e-05,0.0,0 STARLINK-3799,1 52382U 22045BD  24093.34620437  .00003345  00000-0  22816-3 0  9997,2 52382  53.2173 120.0285 0001281  94.8491 265.2647 15.08840546109292,6917.879,95.438,540.63,538.858,0.0
52382.0,STARLINK-3799,PAYLOAD,2024-04-03 01:47:46,15.08841907,0.0001408,53.217,116.7569,98.2032,261.912,0.00012938,1.772e-05,0.0,0 STARLINK-3799,1 52382U 22045BD  24094.07484418  .00001772  00000-0  12938-3 0  9991,2 52382  53.2170 116.7569 0001408  98.2032 261.9120 15.08841907109400,6917.875,95.437,540.714,538.766,0.0
52382.0,STARLINK-3799,PAYLOAD,2024-04-03 11:20:05,15.08842099,0.0001319,53.2169,114.9753,87.8108,272.3035,4.5453e-05,4.36e-06,0.0,0 STARLINK-3799,1 52382U 22045BD  24094.47228633  .00000436  00000-0  45453-4 0  9995,2 52382  53.2169 114.9753 0001319  87.8108 272.3035 15.08842099109462,6917.874,95.437,540.651,538.827,0.0
52382.0,STARLINK-3799,PAYLOAD,2024-04-04 04:49:20,15.08836535,0.0001335,53.2169,111.7042,87.8821,272.2324,-1.5072e-05,-5.28e-06,0.0,0 STARLINK-3799,1 52382U 22045BD  24095.20093150 -.00000528  00000-0 -15072-4 0  9999,2 52382  53.2169 111.7042 0001335  87.8821 272.2324 15.08836535109578,6917.891,95.438,540.68,538.832,0.0
52382.0,STARLINK-3799,PAYLOAD,2024-04-04 08:00:06,15.08836605,0.0001363,53.2168,111.1081,93.4877,266.6271,-2.3211e-05,-6.57e-06,0.0,0 STARLINK-3799,1 52382U 22045BD  24095.33341121 -.00000657  00000-0 -23211-4 0  9994,2 52382  53.2168 111.1081 0001363  93.4877 266.6271 15.08836605109597,6917.891,95.438,540.699,538.813,0.0
52382.0,STARLINK-3799,PAYLOAD,2024-04-04 17:32:25,15.08838028,0.000131,53.2167,109.3231,85.3916,274.7226,4.7774e-06,-2.12e-06,0.0,0 STARLINK-3799,1 52382U 22045BD  24095.73084980 -.00000212  00000-0  47774-5 0  9992,2 52382  53.2167 109.3231 0001310  85.3916 274.7226 15.08838028109656,6917.886,95.438,540.658,538.845,0.0
